STARLINK-36274          
1 68251U 26054V   26089.16668981  .00031984  00000+0  21228-3 0  9991
2 68251  53.1594 209.9251 0001404  89.2735 283.0688 15.75210513  3246
STARLINK-37085          
1 68252U 26054W   26089.16025038  .00154264  00000+0  77016-3 0  9995
2 68252  53.1594 209.9074 0000852  95.8191 264.2929 15.80903072  2013
STARLINK-37086          
1 68253U 26054X   26089.15949806  .00357327  00000+0  17311-2 0  9999
2 68253  53.1587 209.9017 0001567 140.6244 219.4893 15.80985874  2017
STARLINK-37084          
1 68254U 26054Y   26089.16668981  .00086102  00000+0  43660-3 0  9990
2 68254  53.1591 209.8489 0000757  85.0145 324.5763 15.80814609  3200
STARLINK-37075          
1 68255U 26054Z   26089.15874876  .00239052  00000+0  11778-2 0  9990
2 68255  53.1593 209.8979 0001337 135.3612 224.7519 15.80941343  2014
STARLINK-36333          
1 68256U 26054AA  26089.16668981  .00092281  00000+0  46737-3 0  9995
2 68256  53.1590 209.8400 0001138  84.8513 329.0127 15.80813678  3247
STARLINK-36745          
1 68257U 26054AB  26089.16668981 -.01902547  00000+0 -12404-1 0  9996
2 68257  53.1592 209.8274 0000893  80.2102 339.4656 15.78357775  3206
STARLINK-36890          
1 68258U 26054AC  26089.16668981  .00081393  00000+0  41287-3 0  9994
2 68258  53.1590 209.8137 0001181 126.3906 300.2828 15.80828912  3204
STARLINK-36323          
1 68259U 26054AD  26089.16668981  .00070819  00000+0  35999-3 0  9999
2 68259  53.1591 209.8311 0000977  83.4063 334.7153 15.80837513  3243
STARLINK-37056          
1 68260U 26054AE  26089.16668981  .00084582  00000+0  42889-3 0  9999
2 68260  53.1589 209.8045 0000826  99.2477 331.6985 15.80822004  3207
TEN-KOH 2               
1 68261U 25241B   26089.09725823  .00012314  00000+0  53304-3 0  9996
2 68261  51.6392 335.8383 0004469 230.2647 129.7936 15.22777424  2854
STARLINK-37162          
1 68262U 26055A   26089.16668981 -.01162006  40292-3 -33720-2 0  9997
2 68262  53.1582 234.8751 0000892  66.4070  70.1584 15.92283181  2920
STARLINK-37156          
1 68263U 26055B   26089.16668981 -.01154035  39825-3 -33335-2 0  9993
2 68263  53.1580 234.8695 0000856  70.4807  69.0008 15.92369822  2924
STARLINK-37163          
1 68264U 26055C   26089.16668981 -.01163152  40468-3 -33293-2 0  9992
2 68264  53.1580 234.8538 0000913  70.2387  76.4388 15.92546440  2922
STARLINK-37133          
1 68265U 26055D   26089.16668981 -.01158403  40133-3 -33312-2 0  9997
2 68265  53.1580 234.8616 0000974  71.2343  71.9213 15.92456162  2928
STARLINK-37042          
1 68266U 26055E   26089.16668981 -.01173314  41147-3 -33440-2 0  9994
2 68266  53.1579 234.8451 0001019  63.1149  87.9986 15.92630194  2922
